{"type": "FeatureCollection", "features": [ {"type": "Feature", "properties": {"norad_id": 66416, "name": "HULIANWANG DIGUI 13E", "group": "last-30-days", "lat": 48.494766569697724, "lon": 32.065896854001494, "alt_km": 815.8310703639645, "timestamp": "2025-12-07T14:37:03.992771+00:00", "meta": {"OBJECT_NAME": "HULIANWANG DIGUI 13E", "OBJECT_ID": "2025-258E", "EPOCH": "2025-12-06T06:05:20.650272", "MEAN_MOTION": 14.21759879, "ECCENTRICITY": 0.00106116, "INCLINATION": 50.0051, "RA_OF_ASC_NODE": 289.3198, "ARG_OF_PERICENTER": 342.4117, "MEAN_ANOMALY": 17.6426, "EPHEMERIS_TYPE": 0, "CLASSIFICATION_TYPE": "U", "NORAD_CAT_ID": 66416, "ELEMENT_SET_NO": 999, "REV_AT_EPOCH": 373, "BSTAR": 0.00040565133, "MEAN_MOTION_DOT": 7.4e-06, "MEAN_MOTION_DDOT": 0}, "tle": {"line1": "1 66416U 25258E   25340.25371123  .00000740  00000+0  40565-3 0  9996", "line2": "2 66416  50.0051 289.3198 0010611 342.4117  17.6426 14.21759879  3739"}}, "geometry": {"type": "Point", "coordinates": [32.065896854001494, 48.494766569697724]}}, {"type": "Feature", "properties": {"norad_id": 66417, "name": "HULIANWANG DIGUI 13F", "group": "last-30-days", "lat": 45.74938855205053, "lon": 44.063096547814624, "alt_km": 816.7175888664697, "timestamp": "2025-12-07T14:37:03.992781+00:00", "meta": {"OBJECT_NAME": "HULIANWANG DIGUI 13F", "OBJECT_ID": "2025-258F", "EPOCH": "2025-12-06T14:29:09.906432", "MEAN_MOTION": 14.21933133, "ECCENTRICITY": 0.00102248, "INCLINATION": 50.0001, "RA_OF_ASC_NODE": 287.8136, "ARG_OF_PERICENTER": 341.4358, "MEAN_ANOMALY": 18.618, "EPHEMERIS_TYPE": 0, "CLASSIFICATION_TYPE": "U", "NORAD_CAT_ID": 66417, "ELEMENT_SET_NO": 999, "REV_AT_EPOCH": 378, "BSTAR": 0.00035322897, "MEAN_MOTION_DOT": 6.26e-06, "MEAN_MOTION_DDOT": 0}, "tle": {"line1": "1 66417U 25258F   25340.60358688  .00000626  00000+0  35323-3 0  9996", "line2": "2 66417  50.0001 287.8136 0010224 341.4358  18.6180 14.21933133  3786"}}, "geometry": {"type": "Point", "coordinates": [44.063096547814624, 45.74938855205053]}}, {"type": "Feature", "properties": {"norad_id": 66418, "name": "HULIANWANG DIGUI 13G", "group": "last-30-days", "lat": 32.650710819914664, "lon": 70.99614986421679, "alt_km": 821.718300976092, "timestamp": "2025-12-07T14:37:03.992791+00:00", "meta": {"OBJECT_NAME": "HULIANWANG DIGUI 13G", "OBJECT_ID": "2025-258G", "EPOCH": "2025-12-06T22:48:15.691968", "MEAN_MOTION": 14.21900282, "ECCENTRICITY": 0.00109178, "INCLINATION": 49.9964, "RA_OF_ASC_NODE": 286.3158, "ARG_OF_PERICENTER": 336.7333, "MEAN_ANOMALY": 23.3084, "EPHEMERIS_TYPE": 0, "CLASSIFICATION_TYPE": "U", "NORAD_CAT_ID": 66418, "ELEMENT_SET_NO": 999, "REV_AT_EPOCH": 383, "BSTAR": 0.00030227469, "MEAN_MOTION_DOT": 5.13e-06, "MEAN_MOTION_DDOT": 0}, "tle": {"line1": "1 66418U 25258G   25340.95018162  .00000513  00000+0  30227-3 0  9998", "line2": "2 66418  49.9964 286.3158 0010917 336.7333  23.3084 14.21900282  3830"}}, "geometry": {"type": "Point", "coordinates": [70.99614986421679, 32.650710819914664]}}, {"type": "Feature", "properties": {"norad_id": 66419, "name": "HULIANWANG DIGUI 13H", "group": "last-30-days", "lat": 26.517964101346923, "lon": 78.76001562549423, "alt_km": 820.779991242689, "timestamp": "2025-12-07T14:37:03.992802+00:00", "meta": {"OBJECT_NAME": "HULIANWANG DIGUI 13H", "OBJECT_ID": "2025-258H", "EPOCH": "2025-12-06T22:45:46.309824", "MEAN_MOTION": 14.22013491, "ECCENTRICITY": 0.00082545, "INCLINATION": 50.0017, "RA_OF_ASC_NODE": 286.3008, "ARG_OF_PERICENTER": 339.9329, "MEAN_ANOMALY": 20.1258, "EPHEMERIS_TYPE": 0, "CLASSIFICATION_TYPE": "U", "NORAD_CAT_ID": 66419, "ELEMENT_SET_NO": 999, "REV_AT_EPOCH": 383, "BSTAR": 0.00028418037, "MEAN_MOTION_DOT": 4.74e-06, "MEAN_MOTION_DDOT": 0}, "tle": {"line1": "1 66419U 25258H   25340.94845266  .00000474  00000+0  28418-3 0  9996", "line2": "2 66419  50.0017 286.3008 0008254 339.9329  20.1258 14.22013491  3834"}}, "geometry": {"type": "Point", "coordinates": [78.76001562549423, 26.517964101346923]}}, {"type": "Feature", "properties": {"norad_id": 66420, "name": "HULIANWANG DIGUI 13J", "group": "last-30-days", "lat": 21.202142878481943, "lon": 84.51668404712314, "alt_km": 820.7565510783879, "timestamp": "2025-12-07T14:37:03.992812+00:00", "meta": {"OBJECT_NAME": "HULIANWANG DIGUI 13J", "OBJECT_ID": "2025-258J", "EPOCH": "2025-12-06T22:43:47.062272", "MEAN_MOTION": 14.22178849, "ECCENTRICITY": 0.00077946, "INCLINATION": 50.0037, "RA_OF_ASC_NODE": 286.3028, "ARG_OF_PERICENTER": 347.21, "MEAN_ANOMALY": 12.8614, "EPHEMERIS_TYPE": 0, "CLASSIFICATION_TYPE": "U", "NORAD_CAT_ID": 66420, "ELEMENT_SET_NO": 999, "REV_AT_EPOCH": 382, "BSTAR": 0.00028316979, "MEAN_MOTION_DOT": 4.73e-06, "MEAN_MOTION_DDOT": 0}, "tle": {"line1": "1 66420U 25258J   25340.94707248  .00000473  00000+0  28317-3 0  9992", "line2": "2 66420  50.0037 286.3028 0007794 347.2100  12.8614 14.22178849  3829"}}, "geometry": {"type": "Point", "coordinates": [84.51668404712314, 21.202142878481943]}}, {"type": "Feature", "properties": {"norad_id": 66421, "name": "CZ-12 R/B", "group": "last-30-days", "lat": 49.47260856612942, "lon": -0.5911853065163277, "alt_km": 782.809013509569, "timestamp": "2025-12-07T14:37:03.992823+00:00", "meta": {"OBJECT_NAME": "CZ-12 R/B", "OBJECT_ID": "2025-258K", "EPOCH": "2025-12-06T21:36:07.292160", "MEAN_MOTION": 14.42319892, "ECCENTRICITY": 0.00645248, "INCLINATION": 49.9961, "RA_OF_ASC_NODE": 283.2878, "ARG_OF_PERICENTER": 228.4128, "MEAN_ANOMALY": 131.1251, "EPHEMERIS_TYPE": 0, "CLASSIFICATION_TYPE": "U", "NORAD_CAT_ID": 66421, "ELEMENT_SET_NO": 999, "REV_AT_EPOCH": 387, "BSTAR": 0.00011616929, "MEAN_MOTION_DOT": 2.25e-06, "MEAN_MOTION_DDOT": 0}, "tle": {"line1": "1 66421U 25258K   25340.90008440  .00000225  00000+0  11617-3 0  9997", "line2": "2 66421  49.9961 283.2878 0064524 228.4128 131.1251 14.42319892  3870"}}, "geometry": {"type": "Point", "coordinates": [-0.5911853065163277, 49.47260856612942]}}, {"type": "Feature", "properties": {"norad_id": 66422, "name": "STARLINK-35617", "group": "last-30-days", "lat": -40.59785045905351, "lon": -35.44865790946464, "alt_km": 446.595216835206, "timestamp": "2025-12-07T14:37:03.992847+00:00", "meta": {"OBJECT_NAME": "STARLINK-35617", "OBJECT_ID": "2025-259A", "EPOCH": "2025-12-07T00:00:02.000160", "MEAN_MOTION": 15.40661177, "ECCENTRICITY": 0.00012093, "INCLINATION": 43.0009, "RA_OF_ASC_NODE": 81.1817, "ARG_OF_PERICENTER": 271.0136, "MEAN_ANOMALY": 199.5474, "EPHEMERIS_TYPE": 0, "CLASSIFICATION_TYPE": "U", "NORAD_CAT_ID": 66422, "ELEMENT_SET_NO": 999, "REV_AT_EPOCH": 535, "BSTAR": 0.00052450909, "MEAN_MOTION_DOT": 0.0002164, "MEAN_MOTION_DDOT": 0}, "tle": {"line1": "1 66422U 25259A   25341.00002315  .00021640  00000+0  52451-3 0  9991", "line2": "2 66422  43.0009  81.1817 0001209 271.0136 199.5474 15.40661177  5356"}}, "geometry": {"type": "Point", "coordinates": [-35.44865790946464, -40.59785045905351]}}, {"type": "Feature", "properties": {"norad_id": 66423, "name": "STARLINK-35618", "group": "last-30-days", "lat": -42.783531648742134, "lon": -19.083194851734596, "alt_km": 446.42214977429467, "timestamp": "2025-12-07T14:37:03.992859+00:00", "meta": {"OBJECT_NAME": "STARLINK-35618", "OBJECT_ID": "2025-259B", "EPOCH": "2025-12-07T00:00:02.000160", "MEAN_MOTION": 15.40660279, "ECCENTRICITY": 0.00015349, "INCLINATION": 43.001, "RA_OF_ASC_NODE": 81.1513, "ARG_OF_PERICENTER": 268.359, "MEAN_ANOMALY": 214.64, "EPHEMERIS_TYPE": 0, "CLASSIFICATION_TYPE": "U", "NORAD_CAT_ID": 66423, "ELEMENT_SET_NO": 999, "REV_AT_EPOCH": 535, "BSTAR": 0.00046654015, "MEAN_MOTION_DOT": 0.00019208, "MEAN_MOTION_DDOT": 0}, "tle": {"line1": "1 66423U 25259B   25341.00002315  .00019208  00000+0  46654-3 0  9997", "line2": "2 66423  43.0010  81.1513 0001534 268.3590 214.6400 15.40660279  5356"}}, "geometry": {"type": "Point", "coordinates": [-19.083194851734596, -42.783531648742134]}}, {"type": "Feature", "properties": {"norad_id": 66424, "name": "STARLINK-35588", "group": "last-30-days", "lat": -42.52589588977363, "lon": -2.1911701966076866, "alt_km": 446.41259655710564, "timestamp": "2025-12-07T14:37:03.992872+00:00", "meta": {"OBJECT_NAME": "STARLINK-35588", "OBJECT_ID": "2025-259C", "EPOCH": "2025-12-07T00:00:02.000160", "MEAN_MOTION": 15.40654824, "ECCENTRICITY": 0.0001542, "INCLINATION": 43.0009, "RA_OF_ASC_NODE": 81.1218, "ARG_OF_PERICENTER": 266.1427, "MEAN_ANOMALY": 229.3065, "EPHEMERIS_TYPE": 0, "CLASSIFICATION_TYPE": "U", "NORAD_CAT_ID": 66424, "ELEMENT_SET_NO": 999, "REV_AT_EPOCH": 535, "BSTAR": 0.00053663955, "MEAN_MOTION_DOT": 0.00022145, "MEAN_MOTION_DDOT": 0}, "tle": {"line1": "1 66424U 25259C   25341.00002315  .00022145  00000+0  53664-3 0  9991", "line2": "2 66424  43.0009  81.1218 0001542 266.1427 229.3065 15.40654824  5350"}}, "geometry": {"type": "Point", "coordinates": [-2.1911701966076866, -42.52589588977363]}}, {"type": "Feature", "properties": {"norad_id": 66425, "name": "STARLINK-35555", "group": "last-30-days", "lat": -39.87219508316752, "lon": 13.895419929328762, "alt_km": 446.3432344950079, "timestamp": "2025-12-07T14:37:03.992883+00:00", "meta": {"OBJECT_NAME": "STARLINK-35555", "OBJECT_ID": "2025-259D", "EPOCH": "2025-12-07T00:00:02.000160", "MEAN_MOTION": 15.4074847, "ECCENTRICITY": 0.00018259, "INCLINATION": 43.001, "RA_OF_ASC_NODE": 81.0894, "ARG_OF_PERICENTER": 272.4877, "MEAN_ANOMALY": 235.3568, "EPHEMERIS_TYPE": 0, "CLASSIFICATION_TYPE": "U", "NORAD_CAT_ID": 66425, "ELEMENT_SET_NO": 999, "REV_AT_EPOCH": 535, "BSTAR": -0.0028639977, "MEAN_MOTION_DOT": -0.00118299, "MEAN_MOTION_DDOT": 0}, "tle": {"line1": "1 66425U 25259D   25341.00002315 -.00118299  00000+0 -28640-2 0  9995", "line2": "2 66425  43.0010  81.0894 0001825 272.4877 235.3568 15.40748470  5351"}}, "geometry": {"type": "Point", "coordinates": [13.895419929328762, -39.87219508316752]}}]}